{"type": "FeatureCollection", "features": [ {"type": "Feature", "properties": {"norad_id": 40938, "name": "BEIDOU-3S IGSO-2S (C56)", "group": "gnss", "lat": -6.373080209212691, "lon": 86.40963278863994, "alt_km": 35531.65519687973, "timestamp": "2025-12-16T17:51:11.174014+00:00", "meta": {"OBJECT_NAME": "BEIDOU-3S IGSO-2S (C56)", "OBJECT_ID": "2015-053A", "EPOCH": "2025-12-15T17:16:15.906720", "MEAN_MOTION": 1.00269697, "ECCENTRICITY": 0.00606798, "INCLINATION": 49.506, "RA_OF_ASC_NODE": 260.9696, "ARG_OF_PERICENTER": 188.8642, "MEAN_ANOMALY": 349.819, "EPHEMERIS_TYPE": 0, "CLASSIFICATION_TYPE": "U", "NORAD_CAT_ID": 40938, "ELEMENT_SET_NO": 999, "REV_AT_EPOCH": 3751, "BSTAR": 0, "MEAN_MOTION_DOT": -1.43e-06, "MEAN_MOTION_DDOT": 0}, "tle": {"line1": "1 40938U 15053A   25349.71962855 -.00000143  00000+0  00000+0 0  9991", "line2": "2 40938  49.5060 260.9696 0060679 188.8642 349.8190  1.00269697 37513"}}, "geometry": {"type": "Point", "coordinates": [86.40963278863994, -6.373080209212691]}}, {"type": "Feature", "properties": {"norad_id": 41019, "name": "GPS BIIF-11 (PRN 10)", "group": "gnss", "lat": -31.915652290085863, "lon": 13.854007793947945, "alt_km": 20186.93581580198, "timestamp": "2025-12-16T17:51:11.174026+00:00", "meta": {"OBJECT_NAME": "GPS BIIF-11 (PRN 10)", "OBJECT_ID": "2015-062A", "EPOCH": "2025-12-12T19:26:17.014560", "MEAN_MOTION": 2.00567164, "ECCENTRICITY": 0.01108438, "INCLINATION": 56.8322, "RA_OF_ASC_NODE": 37.9995, "ARG_OF_PERICENTER": 229.9503, "MEAN_ANOMALY": 129.1214, "EPHEMERIS_TYPE": 0, "CLASSIFICATION_TYPE": "U", "NORAD_CAT_ID": 41019, "ELEMENT_SET_NO": 999, "REV_AT_EPOCH": 7409, "BSTAR": 0, "MEAN_MOTION_DOT": -9.6e-07, "MEAN_MOTION_DDOT": 0}, "tle": {"line1": "1 41019U 15062A   25346.80991915 -.00000096  00000+0  00000+0 0  9995", "line2": "2 41019  56.8322  37.9995 0110843 229.9503 129.1214  2.00567164 74093"}}, "geometry": {"type": "Point", "coordinates": [13.854007793947945, -31.915652290085863]}}, {"type": "Feature", "properties": {"norad_id": 41028, "name": "GSAT-15 (GAGAN/PRN 139)", "group": "gnss", "lat": 0.018903410877374818, "lon": 86.89167413377531, "alt_km": 35795.47216340999, "timestamp": "2025-12-16T17:51:11.174038+00:00", "meta": {"OBJECT_NAME": "GSAT-15 (GAGAN/PRN 139)", "OBJECT_ID": "2015-065A", "EPOCH": "2025-12-15T20:40:46.824384", "MEAN_MOTION": 1.00271163, "ECCENTRICITY": 0.00026943, "INCLINATION": 0.0387, "RA_OF_ASC_NODE": 267.8488, "ARG_OF_PERICENTER": 322.0825, "MEAN_ANOMALY": 258.5221, "EPHEMERIS_TYPE": 0, "CLASSIFICATION_TYPE": "U", "NORAD_CAT_ID": 41028, "ELEMENT_SET_NO": 999, "REV_AT_EPOCH": 3696, "BSTAR": 0, "MEAN_MOTION_DOT": -2.35e-06, "MEAN_MOTION_DDOT": 0}, "tle": {"line1": "1 41028U 15065A   25349.86165306 -.00000235  00000+0  00000+0 0  9999", "line2": "2 41028   0.0387 267.8488 0002694 322.0825 258.5221  1.00271163 36961"}}, "geometry": {"type": "Point", "coordinates": [86.89167413377531, 0.018903410877374818]}}, {"type": "Feature", "properties": {"norad_id": 41174, "name": "GSAT0209 (GALILEO 12)", "group": "gnss", "lat": 54.804589952751726, "lon": -178.6648911836493, "alt_km": 23216.03597441267, "timestamp": "2025-12-16T17:51:11.174051+00:00", "meta": {"OBJECT_NAME": "GSAT0209 (GALILEO 12)", "OBJECT_ID": "2015-079A", "EPOCH": "2025-12-13T16:16:46.046208", "MEAN_MOTION": 1.70474514, "ECCENTRICITY": 0.00024314, "INCLINATION": 55.7133, "RA_OF_ASC_NODE": 106.3552, "ARG_OF_PERICENTER": 349.5598, "MEAN_ANOMALY": 10.4024, "EPHEMERIS_TYPE": 0, "CLASSIFICATION_TYPE": "U", "NORAD_CAT_ID": 41174, "ELEMENT_SET_NO": 999, "REV_AT_EPOCH": 6161, "BSTAR": 0, "MEAN_MOTION_DOT": -1e-08, "MEAN_MOTION_DDOT": 0}, "tle": {"line1": "1 41174U 15079A   25347.67831072 -.00000001  00000+0  00000+0 0  9994", "line2": "2 41174  55.7133 106.3552 0002431 349.5598  10.4024  1.70474514 61616"}}, "geometry": {"type": "Point", "coordinates": [-178.6648911836493, 54.804589952751726]}}, {"type": "Feature", "properties": {"norad_id": 41175, "name": "GSAT0208 (GALILEO 11)", "group": "gnss", "lat": -41.761699874808556, "lon": 68.76985364695473, "alt_km": 23223.64803210674, "timestamp": "2025-12-16T17:51:11.174064+00:00", "meta": {"OBJECT_NAME": "GSAT0208 (GALILEO 11)", "OBJECT_ID": "2015-079B", "EPOCH": "2025-12-12T17:24:26.771040", "MEAN_MOTION": 1.70474307, "ECCENTRICITY": 0.00018806, "INCLINATION": 55.7111, "RA_OF_ASC_NODE": 106.3784, "ARG_OF_PERICENTER": 358.3144, "MEAN_ANOMALY": 1.6545, "EPHEMERIS_TYPE": 0, "CLASSIFICATION_TYPE": "U", "NORAD_CAT_ID": 41175, "ELEMENT_SET_NO": 999, "REV_AT_EPOCH": 6201, "BSTAR": 0, "MEAN_MOTION_DOT": 4e-08, "MEAN_MOTION_DDOT": 0}, "tle": {"line1": "1 41175U 15079B   25346.72530985  .00000004  00000+0  00000+0 0  9991", "line2": "2 41175  55.7111 106.3784 0001880 358.3144   1.6545  1.70474307 62017"}}, "geometry": {"type": "Point", "coordinates": [68.76985364695473, -41.761699874808556]}}, {"type": "Feature", "properties": {"norad_id": 41241, "name": "IRNSS-1E", "group": "gnss", "lat": 21.581711297399, "lon": 100.15576290706443, "alt_km": 35859.198509620066, "timestamp": "2025-12-16T17:51:11.174076+00:00", "meta": {"OBJECT_NAME": "IRNSS-1E", "OBJECT_ID": "2016-003A", "EPOCH": "2025-12-12T20:06:57.569184", "MEAN_MOTION": 1.00273817, "ECCENTRICITY": 0.00218004, "INCLINATION": 32.8255, "RA_OF_ASC_NODE": 62.4521, "ARG_OF_PERICENTER": 187.6915, "MEAN_ANOMALY": 245.1684, "EPHEMERIS_TYPE": 0, "CLASSIFICATION_TYPE": "U", "NORAD_CAT_ID": 41241, "ELEMENT_SET_NO": 999, "REV_AT_EPOCH": 3621, "BSTAR": 0, "MEAN_MOTION_DOT": -3.05e-06, "MEAN_MOTION_DDOT": 0}, "tle": {"line1": "1 41241U 16003A   25346.83816631 -.00000305  00000+0  00000+0 0  9995", "line2": "2 41241  32.8255  62.4521 0021800 187.6915 245.1684  1.00273817 36218"}}, "geometry": {"type": "Point", "coordinates": [100.15576290706443, 21.581711297399]}}, {"type": "Feature", "properties": {"norad_id": 41328, "name": "GPS BIIF-12 (PRN 32)", "group": "gnss", "lat": -54.2490184280618, "lon": -10.091123145701387, "alt_km": 19953.721843733387, "timestamp": "2025-12-16T17:51:11.174091+00:00", "meta": {"OBJECT_NAME": "GPS BIIF-12 (PRN 32)", "OBJECT_ID": "2016-007A", "EPOCH": "2025-12-14T09:19:00.023808", "MEAN_MOTION": 2.00560678, "ECCENTRICITY": 0.00922324, "INCLINATION": 55.4071, "RA_OF_ASC_NODE": 96.7915, "ARG_OF_PERICENTER": 243.6085, "MEAN_ANOMALY": 115.4276, "EPHEMERIS_TYPE": 0, "CLASSIFICATION_TYPE": "U", "NORAD_CAT_ID": 41328, "ELEMENT_SET_NO": 999, "REV_AT_EPOCH": 7213, "BSTAR": 0, "MEAN_MOTION_DOT": -2.9e-07, "MEAN_MOTION_DDOT": 0}, "tle": {"line1": "1 41328U 16007A   25348.38819472 -.00000029  00000+0  00000+0 0  9996", "line2": "2 41328  55.4071  96.7915 0092232 243.6085 115.4276  2.00560678 72138"}}, "geometry": {"type": "Point", "coordinates": [-10.091123145701387, -54.2490184280618]}}, {"type": "Feature", "properties": {"norad_id": 41330, "name": "COSMOS 2514 (751)", "group": "gnss", "lat": 0.6994634812004737, "lon": -40.422655085865856, "alt_km": 19153.963940507805, "timestamp": "2025-12-16T17:51:11.174103+00:00", "meta": {"OBJECT_NAME": "COSMOS 2514 (751)", "OBJECT_ID": "2016-008A", "EPOCH": "2025-12-14T20:46:48.200160", "MEAN_MOTION": 2.13102693, "ECCENTRICITY": 0.00120161, "INCLINATION": 65.1326, "RA_OF_ASC_NODE": 319.3311, "ARG_OF_PERICENTER": 220.1002, "MEAN_ANOMALY": 139.8075, "EPHEMERIS_TYPE": 0, "CLASSIFICATION_TYPE": "U", "NORAD_CAT_ID": 41330, "ELEMENT_SET_NO": 999, "REV_AT_EPOCH": 7669, "BSTAR": 0, "MEAN_MOTION_DOT": -6.7e-07, "MEAN_MOTION_DDOT": 0}, "tle": {"line1": "1 41330U 16008A   25348.86583565 -.00000067  00000+0  00000+0 0  9996", "line2": "2 41330  65.1326 319.3311 0012016 220.1002 139.8075  2.13102693 76692"}}, "geometry": {"type": "Point", "coordinates": [-40.422655085865856, 0.6994634812004737]}}, {"type": "Feature", "properties": {"norad_id": 41384, "name": "IRNSS-1F", "group": "gnss", "lat": -4.710630237067012, "lon": 26.11318555761998, "alt_km": 35808.7526929316, "timestamp": "2025-12-16T17:51:11.174115+00:00", "meta": {"OBJECT_NAME": "IRNSS-1F", "OBJECT_ID": "2016-015A", "EPOCH": "2025-12-15T22:06:08.649216", "MEAN_MOTION": 1.00274198, "ECCENTRICITY": 0.00226047, "INCLINATION": 4.8888, "RA_OF_ASC_NODE": 101.2206, "ARG_OF_PERICENTER": 181.0814, "MEAN_ANOMALY": 166.4307, "EPHEMERIS_TYPE": 0, "CLASSIFICATION_TYPE": "U", "NORAD_CAT_ID": 41384, "ELEMENT_SET_NO": 999, "REV_AT_EPOCH": 3582, "BSTAR": 0, "MEAN_MOTION_DOT": 1.79e-06, "MEAN_MOTION_DDOT": 0}, "tle": {"line1": "1 41384U 16015A   25349.92093344  .00000179  00000+0  00000+0 0  9995", "line2": "2 41384   4.8888 101.2206 0022604 181.0814 166.4307  1.00274198 35824"}}, "geometry": {"type": "Point", "coordinates": [26.11318555761998, -4.710630237067012]}}, {"type": "Feature", "properties": {"norad_id": 41434, "name": "BEIDOU-2 IGSO-6 (C13)", "group": "gnss", "lat": 39.08279854114643, "lon": 67.87389101243961, "alt_km": 36033.53143629593, "timestamp": "2025-12-16T17:51:11.174131+00:00", "meta": {"OBJECT_NAME": "BEIDOU-2 IGSO-6 (C13)", "OBJECT_ID": "2016-021A", "EPOCH": "2025-12-11T15:29:12.615360", "MEAN_MOTION": 1.00293077, "ECCENTRICITY": 0.00608616, "INCLINATION": 59.9644, "RA_OF_ASC_NODE": 39.9082, "ARG_OF_PERICENTER": 229.9753, "MEAN_ANOMALY": 135.9177, "EPHEMERIS_TYPE": 0, "CLASSIFICATION_TYPE": "U", "NORAD_CAT_ID": 41434, "ELEMENT_SET_NO": 999, "REV_AT_EPOCH": 3560, "BSTAR": 0, "MEAN_MOTION_DOT": -1.62e-06, "MEAN_MOTION_DDOT": 0}, "tle": {"line1": "1 41434U 16021A   25345.64528490 -.00000162  00000+0  00000+0 0  9991", "line2": "2 41434  59.9644  39.9082 0060861 229.9753 135.9177  1.00293077 35600"}}, "geometry": {"type": "Point", "coordinates": [67.87389101243961, 39.08279854114643]}}]}